STARLINK-37059          
1 68088U 26042V   26084.92937153  .00160959  00000+0  80126-3 0  9992
2 68088  53.1575 113.2224 0000875 114.8274 245.2840 15.80945196  4658
STARLINK-37004          
1 68089U 26042W   26084.92861955  .00226911  00000+0  11177-2 0  9999
2 68089  53.1575 113.2175 0000885 123.8111 236.2996 15.80979771  4653
STARLINK-36320          
1 68090U 26042X   26084.88493375  .00246832  00000+0  15603-2 0  9995
2 68090  53.1591 113.6633 0001450 129.1151 230.9998 15.75349020  4642
STARLINK-36324          
1 68091U 26042Y   26084.88980479  .00241027  00000+0  15262-2 0  9994
2 68091  53.1590 113.6962 0000657   4.0542 356.0483 15.75327969  4647
STARLINK-36896          
1 68092U 26042Z   26084.94384003  .00229839  00000+0  14572-2 0  9993
2 68092  53.1598 113.3181 0001535 132.8675 227.2475 15.75332836  4648
STARLINK-36251          
1 68093U 26042AA  26084.92487224  .00145546  00000+0  72633-3 0  9996
2 68093  53.1579 113.1912 0000716  94.8138 265.2967 15.80940044  4649
STARLINK-36787          
1 68094U 26042AB  26084.88526234  .00266981  00000+0  16828-2 0  9997
2 68094  53.1593 113.6652 0000752 122.9721 237.1371 15.75355037  4635
STARLINK-36790          
1 68095U 26042AC  26084.91667824 -.00108961  00000+0 -71465-3 0  9997
2 68095  53.1595 113.2974 0000946  85.0026 196.3543 15.75276382  4657
STARLINK-36328          
1 68096U 26042AD  26084.79618707  .00296328  00000+0  14466-2 0  9990
2 68096  53.1578 113.8100 0001551  60.7079 299.4099 15.80982870  4627
STARLINK-36853          
1 68097U 26042AE  26084.79768657  .00340358  00000+0  16512-2 0  9998
2 68097  53.1580 113.8203 0001376  77.7558 282.3619 15.81000561  4628
GLOBAL-34               
1 68098U 26043A   26084.71200294  .00012184  00000+0  39595-3 0  9990
2 68098  42.0225 343.0033 0004296  31.0061 329.1029 15.31781740  3024
STARLINK-37022          
1 68101U 26044A   26084.91396306  .00093799  00000+0  62174-3 0  9998
2 68101  97.2832  45.8474 0001501 107.3480 252.7950 15.75231251  4030
