CCSDS_OMM_VERS = 2.0
CREATION_DATE  = 
ORIGINATOR     = 

OBJECT_NAME    = STARLINK-37059
OBJECT_ID      = 2026-042V
CENTER_NAME    = EARTH
REF_FRAME      = TEME
TIME_SYSTEM    = UTC
MEAN_ELEMENT_THEORY = SGP/SGP4

EPOCH          = 2026-03-25T22:18:17.700192
MEAN_MOTION    = 15.80945196
ECCENTRICITY   = .00008753
INCLINATION    = 53.1575
RA_OF_ASC_NODE = 113.2224
ARG_OF_PERICENTER = 114.8274
MEAN_ANOMALY   = 245.2840

EPHEMERIS_TYPE = 0
CLASSIFICATION_TYPE = U
NORAD_CAT_ID   = 68088
ELEMENT_SET_NO = 999
REV_AT_EPOCH   = 465
BSTAR          = .80125705E-3
MEAN_MOTION_DOT = .160959E-2
MEAN_MOTION_DDOT = 0

CCSDS_OMM_VERS = 2.0
CREATION_DATE  = 
ORIGINATOR     = 

OBJECT_NAME    = STARLINK-37004
OBJECT_ID      = 2026-042W
CENTER_NAME    = EARTH
REF_FRAME      = TEME
TIME_SYSTEM    = UTC
MEAN_ELEMENT_THEORY = SGP/SGP4

EPOCH          = 2026-03-25T22:17:12.729120
MEAN_MOTION    = 15.80979771
ECCENTRICITY   = .00008859
INCLINATION    = 53.1575
RA_OF_ASC_NODE = 113.2175
ARG_OF_PERICENTER = 123.8111
MEAN_ANOMALY   = 236.2996

EPHEMERIS_TYPE = 0
CLASSIFICATION_TYPE = U
NORAD_CAT_ID   = 68089
ELEMENT_SET_NO = 999
REV_AT_EPOCH   = 465
BSTAR          = .11177132E-2
MEAN_MOTION_DOT = .226911E-2
MEAN_MOTION_DDOT = 0

CCSDS_OMM_VERS = 2.0
CREATION_DATE  = 
ORIGINATOR     = 

OBJECT_NAME    = STARLINK-36320
OBJECT_ID      = 2026-042X
CENTER_NAME    = EARTH
REF_FRAME      = TEME
TIME_SYSTEM    = UTC
MEAN_ELEMENT_THEORY = SGP/SGP4

EPOCH          = 2026-03-25T21:14:18.276000
MEAN_MOTION    = 15.75349020
ECCENTRICITY   = .000145
INCLINATION    = 53.1591
RA_OF_ASC_NODE = 113.6633
ARG_OF_PERICENTER = 129.1151
MEAN_ANOMALY   = 230.9998

EPHEMERIS_TYPE = 0
CLASSIFICATION_TYPE = U
NORAD_CAT_ID   = 68090
ELEMENT_SET_NO = 999
REV_AT_EPOCH   = 464
BSTAR          = .15603273E-2
MEAN_MOTION_DOT = .246832E-2
MEAN_MOTION_DDOT = 0

CCSDS_OMM_VERS = 2.0
CREATION_DATE  = 
ORIGINATOR     = 

OBJECT_NAME    = STARLINK-36324
OBJECT_ID      = 2026-042Y
CENTER_NAME    = EARTH
REF_FRAME      = TEME
TIME_SYSTEM    = UTC
MEAN_ELEMENT_THEORY = SGP/SGP4

EPOCH          = 2026-03-25T21:21:19.133856
MEAN_MOTION    = 15.75327969
ECCENTRICITY   = .00006579
INCLINATION    = 53.1590
RA_OF_ASC_NODE = 113.6962
ARG_OF_PERICENTER = 4.0542
MEAN_ANOMALY   = 356.0483

EPHEMERIS_TYPE = 0
CLASSIFICATION_TYPE = U
NORAD_CAT_ID   = 68091
ELEMENT_SET_NO = 999
REV_AT_EPOCH   = 464
BSTAR          = .15261544E-2
MEAN_MOTION_DOT = .241027E-2
MEAN_MOTION_DDOT = 0

CCSDS_OMM_VERS = 2.0
CREATION_DATE  = 
ORIGINATOR     = 

OBJECT_NAME    = STARLINK-36896
OBJECT_ID      = 2026-042Z
CENTER_NAME    = EARTH
REF_FRAME      = TEME
TIME_SYSTEM    = UTC
MEAN_ELEMENT_THEORY = SGP/SGP4

EPOCH          = 2026-03-25T22:39:07.778592
MEAN_MOTION    = 15.75332836
ECCENTRICITY   = .00015359
INCLINATION    = 53.1598
RA_OF_ASC_NODE = 113.3181
ARG_OF_PERICENTER = 132.8675
MEAN_ANOMALY   = 227.2475

EPHEMERIS_TYPE = 0
CLASSIFICATION_TYPE = U
NORAD_CAT_ID   = 68092
ELEMENT_SET_NO = 999
REV_AT_EPOCH   = 464
BSTAR          = .14571595E-2
MEAN_MOTION_DOT = .229839E-2
MEAN_MOTION_DDOT = 0

CCSDS_OMM_VERS = 2.0
CREATION_DATE  = 
ORIGINATOR     = 

OBJECT_NAME    = STARLINK-36251
OBJECT_ID      = 2026-042AA
CENTER_NAME    = EARTH
REF_FRAME      = TEME
TIME_SYSTEM    = UTC
MEAN_ELEMENT_THEORY = SGP/SGP4

EPOCH          = 2026-03-25T22:11:48.961536
MEAN_MOTION    = 15.80940044
ECCENTRICITY   = .00007163
INCLINATION    = 53.1579
RA_OF_ASC_NODE = 113.1912
ARG_OF_PERICENTER = 94.8138
MEAN_ANOMALY   = 265.2967

EPHEMERIS_TYPE = 0
CLASSIFICATION_TYPE = U
NORAD_CAT_ID   = 68093
ELEMENT_SET_NO = 999
REV_AT_EPOCH   = 464
BSTAR          = .72633315E-3
MEAN_MOTION_DOT = .145546E-2
MEAN_MOTION_DDOT = 0

CCSDS_OMM_VERS = 2.0
CREATION_DATE  = 
ORIGINATOR     = 

OBJECT_NAME    = STARLINK-36787
OBJECT_ID      = 2026-042AB
CENTER_NAME    = EARTH
REF_FRAME      = TEME
TIME_SYSTEM    = UTC
MEAN_ELEMENT_THEORY = SGP/SGP4

EPOCH          = 2026-03-25T21:14:46.666176
MEAN_MOTION    = 15.75355037
ECCENTRICITY   = .00007523
INCLINATION    = 53.1593
RA_OF_ASC_NODE = 113.6652
ARG_OF_PERICENTER = 122.9721
MEAN_ANOMALY   = 237.1371

EPHEMERIS_TYPE = 0
CLASSIFICATION_TYPE = U
NORAD_CAT_ID   = 68094
ELEMENT_SET_NO = 999
REV_AT_EPOCH   = 463
BSTAR          = .16828439E-2
MEAN_MOTION_DOT = .266981E-2
MEAN_MOTION_DDOT = 0

CCSDS_OMM_VERS = 2.0
CREATION_DATE  = 
ORIGINATOR     = 

OBJECT_NAME    = STARLINK-36790
OBJECT_ID      = 2026-042AC
CENTER_NAME    = EARTH
REF_FRAME      = TEME
TIME_SYSTEM    = UTC
MEAN_ELEMENT_THEORY = SGP/SGP4

EPOCH          = 2026-03-25T22:00:00.999936
MEAN_MOTION    = 15.75276382
ECCENTRICITY   = .00009467
INCLINATION    = 53.1595
RA_OF_ASC_NODE = 113.2974
ARG_OF_PERICENTER = 85.0026
MEAN_ANOMALY   = 196.3543

EPHEMERIS_TYPE = 0
CLASSIFICATION_TYPE = U
NORAD_CAT_ID   = 68095
ELEMENT_SET_NO = 999
REV_AT_EPOCH   = 465
BSTAR          = -.71464611E-3
MEAN_MOTION_DOT = -.108961E-2
MEAN_MOTION_DDOT = 0

CCSDS_OMM_VERS = 2.0
CREATION_DATE  = 
ORIGINATOR     = 

OBJECT_NAME    = STARLINK-36328
OBJECT_ID      = 2026-042AD
CENTER_NAME    = EARTH
REF_FRAME      = TEME
TIME_SYSTEM    = UTC
MEAN_ELEMENT_THEORY = SGP/SGP4

EPOCH          = 2026-03-25T19:06:30.562848
MEAN_MOTION    = 15.80982870
ECCENTRICITY   = .00015516
INCLINATION    = 53.1578
RA_OF_ASC_NODE = 113.8100
ARG_OF_PERICENTER = 60.7079
MEAN_ANOMALY   = 299.4099

EPHEMERIS_TYPE = 0
CLASSIFICATION_TYPE = U
NORAD_CAT_ID   = 68096
ELEMENT_SET_NO = 999
REV_AT_EPOCH   = 462
BSTAR          = .14466185E-2
MEAN_MOTION_DOT = .296328E-2
MEAN_MOTION_DDOT = 0

CCSDS_OMM_VERS = 2.0
CREATION_DATE  = 
ORIGINATOR     = 

OBJECT_NAME    = STARLINK-36853
OBJECT_ID      = 2026-042AE
CENTER_NAME    = EARTH
REF_FRAME      = TEME
TIME_SYSTEM    = UTC
MEAN_ELEMENT_THEORY = SGP/SGP4

EPOCH          = 2026-03-25T19:08:40.119648
MEAN_MOTION    = 15.81000561
ECCENTRICITY   = .00013761
INCLINATION    = 53.1580
RA_OF_ASC_NODE = 113.8203
ARG_OF_PERICENTER = 77.7558
MEAN_ANOMALY   = 282.3619

EPHEMERIS_TYPE = 0
CLASSIFICATION_TYPE = U
NORAD_CAT_ID   = 68097
ELEMENT_SET_NO = 999
REV_AT_EPOCH   = 462
BSTAR          = .16511688E-2
MEAN_MOTION_DOT = .340358E-2
MEAN_MOTION_DDOT = 0

CCSDS_OMM_VERS = 2.0
CREATION_DATE  = 
ORIGINATOR     = 

OBJECT_NAME    = GLOBAL-34
OBJECT_ID      = 2026-043A
CENTER_NAME    = EARTH
REF_FRAME      = TEME
TIME_SYSTEM    = UTC
MEAN_ELEMENT_THEORY = SGP/SGP4

EPOCH          = 2026-03-25T17:05:17.054016
MEAN_MOTION    = 15.31781740
ECCENTRICITY   = .00042961
INCLINATION    = 42.0225
RA_OF_ASC_NODE = 343.0033
ARG_OF_PERICENTER = 31.0061
MEAN_ANOMALY   = 329.1029

EPHEMERIS_TYPE = 0
CLASSIFICATION_TYPE = U
NORAD_CAT_ID   = 68098
ELEMENT_SET_NO = 999
REV_AT_EPOCH   = 302
BSTAR          = .39594638E-3
MEAN_MOTION_DOT = .12184E-3
MEAN_MOTION_DDOT = 0

CCSDS_OMM_VERS = 2.0
CREATION_DATE  = 
ORIGINATOR     = 

OBJECT_NAME    = STARLINK-37022
OBJECT_ID      = 2026-044A
CENTER_NAME    = EARTH
REF_FRAME      = TEME
TIME_SYSTEM    = UTC
MEAN_ELEMENT_THEORY = SGP/SGP4

EPOCH          = 2026-03-25T21:56:06.408384
MEAN_MOTION    = 15.75231251
ECCENTRICITY   = .00015015
INCLINATION    = 97.2832
RA_OF_ASC_NODE = 45.8474
ARG_OF_PERICENTER = 107.3480
MEAN_ANOMALY   = 252.7950

EPHEMERIS_TYPE = 0
CLASSIFICATION_TYPE = U
NORAD_CAT_ID   = 68101
ELEMENT_SET_NO = 999
REV_AT_EPOCH   = 403
BSTAR          = .62173938E-3
MEAN_MOTION_DOT = .93799E-3
MEAN_MOTION_DDOT = 0

